METHANESAT              
1 59101U 24043D   26128.25002281  .00002787  00000+0  24114-3 0  9996
2 59101  97.8401 259.1137 0011767 136.2261 223.9896 14.97949946118672
GOSAT-GW (IBUKI GW)     
1 64694U 25141A   26128.30400539  .00000547  00000+0  10494-3 0  9991
2 64694  98.0559  66.2723 0001480  84.0649 276.0724 14.67552252 45991
GHGSAT-C1               
1 46278U 20061G   26128.26193845  .00032199  00000+0  28474-3 0  9994
2 46278  97.2102 212.1612 0002290 151.9406 208.1980 15.68590958317212
GHGSAT-C12              
1 64529U 25135B   26128.29216455  .00002754  00000+0  13097-3 0  9995
2 64529  97.4699 243.4701 0003868 327.5675  32.5322 15.20027721 48762
GHGSAT-C13              
1 64548U 25135W   26128.24991996  .00002657  00000+0  12410-3 0  9991
2 64548  97.4727 243.9349 0000645 141.6858 218.4423 15.20687431 48785
GHGSAT-C2               
1 47509U 21006DA  26128.12455772  .00005275  00000+0  14640-3 0  9992
2 47509  97.2179 176.0768 0003791 328.7021  31.3998 15.37328983293691
GHGSAT-C3               
1 52737U 22057F   26128.31990032  .00005666  00000+0  17561-3 0  9991
2 52737  97.6548 272.5112 0004831 258.8350 101.2349 15.33853312219424
GHGSAT-C4               
1 52746U 22057Q   26128.34006595  .00005547  00000+0  17204-3 0  9998
2 52746  97.6475 271.4038 0005203 240.4134 119.6589 15.33838216219435
GHGSAT-C5               
1 52744U 22057N   26128.29302382  .00005730  00000+0  17768-3 0  9992
2 52744  97.6638 274.0116 0005458 256.1419 103.9216 15.33828526219427
GHGSAT-C6               
1 56204U 23054AC  26128.28905406  .00013477  00000+0  22706-3 0  9995
2 56204  97.3063  37.5091 0007046 162.1013 198.0490 15.51789135172267
GHGSAT-C7               
1 56209U 23054AH  26128.28506845  .00009332  00000+0  17365-3 0  9994
2 56209  97.3032  36.1707 0008022 164.9348 195.2144 15.49056971172215
GHGSAT-C8               
1 56186U 23054J   26128.25946396  .00012062  00000+0  20335-3 0  9999
2 56186  97.3003  36.8317 0004113 177.6029 182.5244 15.51815831172249
SENTINEL-5P             
1 42969U 17064A   26128.23621605  .00000049  00000+0  44461-4 0  9997
2 42969  98.7949  70.6571 0001258  79.0846 281.0472 14.19512223443896
ENMAP                   
1 52159U 22033C   26128.27612602  .00000521  00000+0  84996-4 0  9994
2 52159  97.9783 211.0922 0001479  85.9571 274.1807 14.74955430220779
PRISMA                  
1 44072U 19015A   26128.28290509  .00000208  00000+0  31553-4 0  9997
2 44072  97.8644 203.6464 0001190  89.2654 270.8696 14.83680679386138
SENTINEL-2A             
1 40697U 15028A   26128.28458424 -.00000201  00000+0 -60062-4 0  9990
2 40697  98.5683 203.7002 0001240  84.4287 275.7037 14.30811284568025
SENTINEL-2B             
1 42063U 17013A   26128.27740726  .00000214  00000+0  98180-4 0  9997
2 42063  98.5690 203.6125 0001277  90.3735 269.7595 14.30817236478936
SENTINEL-2C             
1 60989U 24157A   26128.17255505  .00000081  00000+0  47357-4 0  9998
2 60989  98.5696 203.5179 0001518  96.7371 263.3985 14.30818262 87266
LANDSAT 8               
1 39084U 13008A   26128.19647107  .00000245  00000+0  64418-4 0  9997
2 39084  98.1843 198.9165 0001313 103.4656 256.6689 14.57140835692075
LANDSAT 9               
1 49260U 21088A   26128.23100996  .00000270  00000+0  69914-4 0  9990
2 49260  98.1863 199.0270 0001394 104.6099 255.5255 14.57129948245181
TANAGER-1               
1 60507U 24149AR  26127.93232028  .00007830  00000+0  17071-3 0  9991
2 60507  97.3258 222.0265 0006517  87.9124 272.2870 15.44505743 96824
